NORAD_CAT_ID,OBJECT_NAME,OBJECT_TYPE,EPOCH,MEAN_MOTION,ECCENTRICITY,INCLINATION,RA_OF_ASC_NODE,ARG_OF_PERICENTER,MEAN_ANOMALY,BSTAR,MEAN_MOTION_DOT,MEAN_MOTION_DDOT,TLE_LINE0,TLE_LINE1,TLE_LINE2,SEMIMAJOR_AXIS,PERIOD,APOGEE,PERIGEE,DECAYED
52661.0,STARLINK-4042,PAYLOAD,2022-07-21 20:00:01,15.08778551,0.0001591,53.2165,350.6126,65.0348,318.7872,0.0031261999999999,0.00049733,0.0,0 STARLINK-4042,1 52661U 22053F   22202.83334491  .00049733  00000-0  31262-2 0  9997,2 52661  53.2165 350.6126 0001591  65.0348 318.7872 15.08778551 10733,6918.068,95.441,541.034,538.8330000000002,0.0
52661.0,STARLINK-4042,PAYLOAD,2022-07-21 22:00:00,15.08790087,0.0001564,53.2163,350.2383,63.32,53.38399999999999,0.002326,0.00036874,0.0,0 STARLINK-4042,1 52661U 22053F   22202.91667824  .00036874  00000-0  23260-2 0  9996,2 52661  53.2163 350.2383 0001564  63.3200  53.3840 15.08790087  1308,6918.033,95.441,540.98,538.816,0.0
52661.0,STARLINK-4042,PAYLOAD,2022-07-22 06:00:00,15.08792803,0.0001426,53.2165,348.7403,72.2363,56.0308,0.0031158,0.00049585,0.0,0 STARLINK-4042,1 52661U 22053F   22203.25001157  .00049585  00000-0  31158-2 0  9993,2 52661  53.2165 348.7403 0001426  72.2363  56.0308 15.08792803  1308,6918.025,95.441,540.876,538.903,0.0
52661.0,STARLINK-4042,PAYLOAD,2022-07-22 12:00:00,15.08837695,0.0001484,53.2167,347.6186,72.3391,334.5886,-0.00063201,-0.00010332,0.0,0 STARLINK-4042,1 52661U 22053F   22203.50001157 -.00010332  00000-0 -63201-3 0  9996,2 52661  53.2167 347.6186 0001484  72.3391 334.5886 15.08837695 10834,6917.887,95.438,540.779,538.726,0.0
52661.0,STARLINK-4042,PAYLOAD,2022-07-22 22:00:00,15.08828477,0.0001526,53.2162,345.7491,62.9133,88.4987,0.0018742999999999,0.00029658,0.0,0 STARLINK-4042,1 52661U 22053F   22203.91667824  .00029658  00000-0  18743-2 0  9999,2 52661  53.2162 345.7491 0001526  62.9133  88.4987 15.08828477  1300,6917.916,95.438,540.836,538.725,0.0
52661.0,STARLINK-4042,PAYLOAD,2022-07-23 06:00:00,15.08825207,0.0001372,53.2163,344.251,72.2331,90.7832,0.0032476,0.00051756,0.0,0 STARLINK-4042,1 52661U 22053F   22204.25001157  .00051756  00000-0  32476-2 0  9991,2 52661  53.2163 344.2510 0001372  72.2331  90.7832 15.08825207 10943,6917.926,95.438,540.74,538.841,0.0
52661.0,STARLINK-4042,PAYLOAD,2022-07-23 14:00:01,15.088734900000002,0.0001411,53.2164,342.7557,69.5879,105.0761,-0.0041463,-0.00065734,0.0,0 STARLINK-4042,1 52661U 22053F   22204.58335648 -.00065734  00000-0 -41463-2 0  9991,2 52661  53.2164 342.7557 0001411  69.5879 105.0761 15.08873490 10991,6917.778,95.435,540.619,538.6669999999998,0.0
52661.0,STARLINK-4042,PAYLOAD,2022-07-23 22:00:00,15.08832916,0.0001365,53.2159,341.2597,61.8632,124.3546,0.0011919,0.00018728,0.0,0 STARLINK-4042,1 52661U 22053F   22204.91667824  .00018728  00000-0  11919-2 0  9994,2 52661  53.2159 341.2597 0001365  61.8632 124.3546 15.08832916  1301,6917.901999999999,95.438,540.711,538.823,0.0
52661.0,STARLINK-4042,PAYLOAD,2022-07-24 14:00:01,15.08864661,0.0001365999999999,53.216,338.2667,69.1412,140.2585,-0.0029099,-0.00046332,0.0,0 STARLINK-4042,1 52661U 22053F   22205.58334491 -.00046332  00000-0 -29099-2 0  9991,2 52661  53.2160 338.2667 0001366  69.1412 140.2585 15.08864661 11140,6917.805,95.436,540.615,538.725,0.0
52661.0,STARLINK-4042,PAYLOAD,2022-07-24 22:00:00,15.08834398,0.0001431999999999,53.2155,336.7704,64.9662,156.0404,-0.00047319,-7.809999999999999e-05,0.0,0 STARLINK-4042,1 52661U 22053F   22205.91667824 -.00007810  00000-0 -47319-3 0  9991,2 52661  53.2155 336.7704 0001432  64.9662 156.0404 15.08834398  1309,6917.898,95.438,540.753,538.7719999999998,0.0
52661.0,STARLINK-4042,PAYLOAD,2022-07-25 06:00:00,15.08808946,0.0001357,53.2155,335.2724,74.9054,157.6908,0.0028923,0.00046004,0.0,0 STARLINK-4042,1 52661U 22053F   22206.25001157  .00046004  00000-0  28923-2 0  9995,2 52661  53.2155 335.2724 0001357  74.9054 157.6908 15.08808946 11247,6917.975,95.44,540.779,538.9019999999998,0.0
52661.0,STARLINK-4042,PAYLOAD,2022-07-25 14:00:01,15.08840488,0.0001447,53.2156,333.7775,69.7391,174.4319,-0.0010088,-0.00016307,0.0,0 STARLINK-4042,1 52661U 22053F   22206.58334491 -.00016307  00000-0 -10088-2 0  9999,2 52661  53.2156 333.7775 0001447  69.7391 174.4319 15.08840488  1309,6917.879,95.438,540.745,538.743,0.0
52661.0,STARLINK-4042,PAYLOAD,2022-07-25 22:00:00,15.08847321,0.0001429,53.2154,332.2812,65.2034,190.5537,-0.00055371,-9.091e-05,0.0,0 STARLINK-4042,1 52661U 22053F   22206.91667824 -.00009091  00000-0 -55371-3 0  9992,2 52661  53.2154 332.2812 0001429  65.2034 190.5537 15.08847321 11347,6917.858,95.437,540.712,538.734,0.0
52661.0,STARLINK-4042,PAYLOAD,2022-07-26 14:00:01,15.08854335,0.0001479,53.2156,329.2883,67.9544,211.0019,-0.00084198,-0.00013668,0.0,0 STARLINK-4042,1 52661U 22053F   22207.58334491 -.00013668  00000-0 -84198-3 0  9991,2 52661  53.2156 329.2883 0001479  67.9544 211.0019 15.08854335  1305,6917.837,95.437,540.725,538.678,0.0
52661.0,STARLINK-4042,PAYLOAD,2022-07-26 20:00:01,15.08843989,0.0001505,53.2156,328.1664,63.2018,134.4627,0.0014968,0.00023616,0.0,0 STARLINK-4042,1 52661U 22053F   22207.83334491  .00023616  00000-0  14968-2 0  9998,2 52661  53.2156 328.1664 0001505  63.2018 134.4627 15.08843989 11481,6917.868,95.437,540.774,538.692,0.0
52661.0,STARLINK-4042,PAYLOAD,2022-07-26 22:00:00,15.08876769,0.0001473,53.2156,327.7918,64.3605,226.1975,-0.00299,-0.00047607,0.0,0 STARLINK-4042,1 52661U 22053F   22207.91667824 -.00047607  00000-0 -29900-2 0  9996,2 52661  53.2156 327.7918 0001473  64.3605 226.1975 15.08876769  1303,6917.768,95.435,540.6519999999998,538.614,0.0
52661.0,STARLINK-4042,PAYLOAD,2022-07-27 06:00:02,15.0881991,0.0001503,53.2158,326.2938,73.7338,228.5134,0.0022503,0.00035688,0.0,0 STARLINK-4042,1 52661U 22053F   22208.25002315  .00035688  00000-0  22503-2 0  9998,2 52661  53.2158 326.2938 0001503  73.7338 228.5134 15.08819910 11547,6917.941999999999,95.439,540.847,538.7669999999998,0.0
52661.0,STARLINK-4042,PAYLOAD,2022-07-27 14:00:01,15.08843415,0.0001621999999999,53.216,324.7991,67.5314,246.2394,-0.00077642,-0.00012625,0.0,0 STARLINK-4042,1 52661U 22053F   22208.58334491 -.00012625  00000-0 -77642-3 0  9990,2 52661  53.2160 324.7991 0001622  67.5314 246.2394 15.08843415  1304,6917.87,95.437,540.857,538.613,0.0
52661.0,STARLINK-4042,PAYLOAD,2022-07-27 22:00:00,15.08859159,0.0001575999999999,53.216,323.3026,64.5445,260.816,-0.0014434,-0.00023198,0.0,0 STARLINK-4042,1 52661U 22053F   22208.91667824 -.00023198  00000-0 -14434-2 0  9992,2 52661  53.2160 323.3026 0001576  64.5445 260.8160 15.08859159 11641,6917.821999999999,95.436,540.7769999999998,538.597,0.0
52661.0,STARLINK-4042,PAYLOAD,2022-07-28 14:00:01,15.08849266,0.0001559,53.2164,320.3102,65.0109,283.5687,-0.0025202,-0.00040184,0.0,0 STARLINK-4042,1 52661U 22053F   22209.58334491 -.00040184  00000-0 -25202-2 0  9996,2 52661  53.2164 320.3102 0001559  65.0109 283.5687 15.08849266  1307,6917.852,95.437,540.7959999999998,538.639,0.0
52661.0,STARLINK-4042,PAYLOAD,2022-07-28 22:00:00,15.08848174,0.0001471,53.2164,318.8135,62.1724,297.9924,-0.0016805999999999,-0.00026941,0.0,0 STARLINK-4042,1 52661U 22053F   22209.91667824 -.00026941  00000-0 -16806-2 0  9997,2 52661  53.2164 318.8135 0001471  62.1724 297.9924 15.08848174 11805,6917.855,95.437,540.738,538.703,0.0
52661.0,STARLINK-4042,PAYLOAD,2022-07-29 14:00:01,15.08845312,0.0001531999999999,53.2167,315.8213,63.8128,319.5387,-0.00060319,-9.876e-05,0.0,0 STARLINK-4042,1 52661U 22053F   22210.58334491 -.00009876  00000-0 -60319-3 0  9990,2 52661  53.2167 315.8213 0001532  63.8128 319.5387 15.08845312 11902,6917.864000000001,95.437,540.789,538.669,0.0
52661.0,STARLINK-4042,PAYLOAD,2022-07-29 22:00:00,15.08872412,0.0001501999999999,53.2165,314.3245,63.3849,331.5559,-0.0047738,-0.00075534,0.0,0 STARLINK-4042,1 52661U 22053F   22210.91667824 -.00075534  00000-0 -47738-2 0  9999,2 52661  53.2165 314.3245 0001502  63.3849 331.5559 15.08872412  1300,6917.781,95.436,540.685,538.607,0.0
52661.0,STARLINK-4042,PAYLOAD,2022-07-30 14:00:01,15.088270800000002,0.000159,53.2165,311.3326,65.7898,352.3296,-0.0005404,-8.875e-05,0.0,0 STARLINK-4042,1 52661U 22053F   22211.58334491 -.00008875  00000-0 -54040-3 0  9993,2 52661  53.2165 311.3326 0001590  65.7898 352.3296 15.08827080  1304,6917.92,95.438,540.885,538.685,0.0
52661.0,STARLINK-4042,PAYLOAD,2022-07-30 20:00:01,15.08834673,0.0001521999999999,53.2161,310.2101,63.2181,273.5798,-0.00058309,-9.555e-05,0.0,0 STARLINK-4042,1 52661U 22053F   22211.83334491 -.00009555  00000-0 -58309-3 0  9999,2 52661  53.2161 310.2101 0001522  63.2181 273.5798 15.08834673 12097,6917.897,95.438,540.815,538.7090000000002,0.0
52661.0,STARLINK-4042,PAYLOAD,2022-07-30 22:00:00,15.08844489,0.0001506,53.2162,309.8356,66.0343,3.6571,-0.0020196999999999,-0.00032292,0.0,0 STARLINK-4042,1 52661U 22053F   22211.91667824 -.00032292  00000-0 -20197-2 0  9994,2 52661  53.2162 309.8356 0001506  66.0343   3.6571 15.08844489  1306,6917.8669999999975,95.437,540.773,538.69,0.0
52661.0,STARLINK-4042,PAYLOAD,2022-07-31 14:00:01,15.08833911,0.000154,53.216,306.8438,66.3268,26.54,-0.00020515,-3.551e-05,0.0,0 STARLINK-4042,1 52661U 22053F   22212.58334491 -.00003551  00000-0 -20515-3 0  9990,2 52661  53.2160 306.8438 0001540  66.3268  26.5400 15.08833911  1302,6917.899,95.438,540.8290000000002,538.6990000000002,0.0
52661.0,STARLINK-4042,PAYLOAD,2022-07-31 20:00:01,15.08845863,0.0001482,53.2154,305.7212,64.2063,307.345,-0.0010505,-0.0001696999999999,0.0,0 STARLINK-4042,1 52661U 22053F   22212.83334491 -.00016970  00000-0 -10505-2 0  9994,2 52661  53.2154 305.7212 0001482  64.2063 307.3450 15.08845863 12247,6917.861999999999,95.437,540.753,538.702,0.0
52661.0,STARLINK-4042,PAYLOAD,2022-07-31 22:00:00,15.0885187,0.0001463,53.2155,305.3466,67.5978,36.8506,-0.0020294,-0.00032451,0.0,0 STARLINK-4042,1 52661U 22053F   22212.91667824 -.00032451  00000-0 -20294-2 0  9990,2 52661  53.2155 305.3466 0001463  67.5978  36.8506 15.08851870  1301,6917.844,95.437,540.721,538.697,0.0
